STARLINK-35816          
1 66499U 25263Q   25338.33335648 -.01986585  00000+0 -19883-1 0  9991
2 66499  42.9993 174.5587 0001761 267.4974  99.7324 15.67842608  4288
STARLINK-35894          
1 66500U 25263R   25338.33335648 -.02471588  00000+0 -26654-1 0  9991
2 66500  42.9993 174.5745 0001723 264.4301  96.5600 15.66221025  4281
STARLINK-35897          
1 66501U 25263S   25338.33335648 -.01986761  00000+0 -19886-1 0  9994
2 66501  42.9992 174.5537 0001720 267.5021 101.6448 15.67842909  4289
STARLINK-35922          
1 66502U 25263T   25338.33335648 -.01972864  00000+0 -19738-1 0  9990
2 66502  42.9992 174.5388 0001844 267.5554 107.3522 15.67829082  4285
STARLINK-35917          
1 66503U 25263U   25338.33335648 -.01977309  00000+0 -19787-1 0  9994
2 66503  42.9992 174.5293 0001678 267.2137 111.5275 15.67832572  4280
STARLINK-35916          
1 66504U 25263V   25338.33335648 -.00816865  00000+0 -15027-1 0  9996
2 66504  42.9992 175.1885 0001788 279.7388 192.7717 15.50890123  4283
STARLINK-34766          
1 66505U 25263W   25338.33335648 -.01991103  00000+0 -19932-1 0  9996
2 66505  42.9991 174.5484 0001655 265.4467 105.6150 15.67846658  4280
STARLINK-34765          
1 66506U 25263X   25338.33335648 -.01991948  00000+0 -19941-1 0  9994
2 66506  42.9992 174.5443 0001695 263.5582 109.4195 15.67847404  4289
STARLINK-34767          
1 66507U 25263Y   25338.33335648 -.01988746  00000+0 -19906-1 0  9998
2 66507  42.9992 174.5336 0001756 267.8039 109.0097 15.67844568  4288
STARLINK-35608          
1 66508U 25263Z   25338.33335648 -.01970198  00000+0 -19709-1 0  9992
2 66508  42.9992 174.5199 0001859 268.1849 114.3920 15.67827043  4286
STARLINK-35598          
1 66509U 25263AA  25338.33335648 -.01990823  00000+0 -19929-1 0  9994
2 66509  42.9990 174.4987 0001701 266.6720 123.5606 15.67845900  4281
STARLINK-35600          
1 66510U 25263AB  25338.33335648 -.01988699  00000+0 -19906-1 0  9999
2 66510  42.9992 174.5136 0001738 267.9875 116.4949 15.67844203  4283
