CCSDS_OMM_VERS = 2.0
CREATION_DATE  = 
ORIGINATOR     = 

OBJECT_NAME    = STARLINK-35816
OBJECT_ID      = 2025-263Q
CENTER_NAME    = EARTH
REF_FRAME      = TEME
TIME_SYSTEM    = UTC
MEAN_ELEMENT_THEORY = SGP/SGP4

EPOCH          = 2025-12-04T08:00:01.999872
MEAN_MOTION    = 15.67842608
ECCENTRICITY   = .00017614
INCLINATION    = 42.9993
RA_OF_ASC_NODE = 174.5587
ARG_OF_PERICENTER = 267.4974
MEAN_ANOMALY   = 99.7324

EPHEMERIS_TYPE = 0
CLASSIFICATION_TYPE = U
NORAD_CAT_ID   = 66499
ELEMENT_SET_NO = 999
REV_AT_EPOCH   = 428
BSTAR          = -.19883431E-1
MEAN_MOTION_DOT = -.1986585E-1
MEAN_MOTION_DDOT = 0

CCSDS_OMM_VERS = 2.0
CREATION_DATE  = 
ORIGINATOR     = 

OBJECT_NAME    = STARLINK-35894
OBJECT_ID      = 2025-263R
CENTER_NAME    = EARTH
REF_FRAME      = TEME
TIME_SYSTEM    = UTC
MEAN_ELEMENT_THEORY = SGP/SGP4

EPOCH          = 2025-12-04T08:00:01.999872
MEAN_MOTION    = 15.66221025
ECCENTRICITY   = .00017231
INCLINATION    = 42.9993
RA_OF_ASC_NODE = 174.5745
ARG_OF_PERICENTER = 264.4301
MEAN_ANOMALY   = 96.5600

EPHEMERIS_TYPE = 0
CLASSIFICATION_TYPE = U
NORAD_CAT_ID   = 66500
ELEMENT_SET_NO = 999
REV_AT_EPOCH   = 428
BSTAR          = -.26653673E-1
MEAN_MOTION_DOT = -.2471588E-1
MEAN_MOTION_DDOT = 0

CCSDS_OMM_VERS = 2.0
CREATION_DATE  = 
ORIGINATOR     = 

OBJECT_NAME    = STARLINK-35897
OBJECT_ID      = 2025-263S
CENTER_NAME    = EARTH
REF_FRAME      = TEME
TIME_SYSTEM    = UTC
MEAN_ELEMENT_THEORY = SGP/SGP4

EPOCH          = 2025-12-04T08:00:01.999872
MEAN_MOTION    = 15.67842909
ECCENTRICITY   = .00017207
INCLINATION    = 42.9992
RA_OF_ASC_NODE = 174.5537
ARG_OF_PERICENTER = 267.5021
MEAN_ANOMALY   = 101.6448

EPHEMERIS_TYPE = 0
CLASSIFICATION_TYPE = U
NORAD_CAT_ID   = 66501
ELEMENT_SET_NO = 999
REV_AT_EPOCH   = 428
BSTAR          = -.19885559E-1
MEAN_MOTION_DOT = -.1986761E-1
MEAN_MOTION_DDOT = 0

CCSDS_OMM_VERS = 2.0
CREATION_DATE  = 
ORIGINATOR     = 

OBJECT_NAME    = STARLINK-35922
OBJECT_ID      = 2025-263T
CENTER_NAME    = EARTH
REF_FRAME      = TEME
TIME_SYSTEM    = UTC
MEAN_ELEMENT_THEORY = SGP/SGP4

EPOCH          = 2025-12-04T08:00:01.999872
MEAN_MOTION    = 15.67829082
ECCENTRICITY   = .00018448
INCLINATION    = 42.9992
RA_OF_ASC_NODE = 174.5388
ARG_OF_PERICENTER = 267.5554
MEAN_ANOMALY   = 107.3522

EPHEMERIS_TYPE = 0
CLASSIFICATION_TYPE = U
NORAD_CAT_ID   = 66502
ELEMENT_SET_NO = 999
REV_AT_EPOCH   = 428
BSTAR          = -.1973787E-1
MEAN_MOTION_DOT = -.1972864E-1
MEAN_MOTION_DDOT = 0

CCSDS_OMM_VERS = 2.0
CREATION_DATE  = 
ORIGINATOR     = 

OBJECT_NAME    = STARLINK-35917
OBJECT_ID      = 2025-263U
CENTER_NAME    = EARTH
REF_FRAME      = TEME
TIME_SYSTEM    = UTC
MEAN_ELEMENT_THEORY = SGP/SGP4

EPOCH          = 2025-12-04T08:00:01.999872
MEAN_MOTION    = 15.67832572
ECCENTRICITY   = .00016782
INCLINATION    = 42.9992
RA_OF_ASC_NODE = 174.5293
ARG_OF_PERICENTER = 267.2137
MEAN_ANOMALY   = 111.5275

EPHEMERIS_TYPE = 0
CLASSIFICATION_TYPE = U
NORAD_CAT_ID   = 66503
ELEMENT_SET_NO = 999
REV_AT_EPOCH   = 428
BSTAR          = -.19787023E-1
MEAN_MOTION_DOT = -.1977309E-1
MEAN_MOTION_DDOT = 0

CCSDS_OMM_VERS = 2.0
CREATION_DATE  = 
ORIGINATOR     = 

OBJECT_NAME    = STARLINK-35916
OBJECT_ID      = 2025-263V
CENTER_NAME    = EARTH
REF_FRAME      = TEME
TIME_SYSTEM    = UTC
MEAN_ELEMENT_THEORY = SGP/SGP4

EPOCH          = 2025-12-04T08:00:01.999872
MEAN_MOTION    = 15.50890123
ECCENTRICITY   = .00017883
INCLINATION    = 42.9992
RA_OF_ASC_NODE = 175.1885
ARG_OF_PERICENTER = 279.7388
MEAN_ANOMALY   = 192.7717

EPHEMERIS_TYPE = 0
CLASSIFICATION_TYPE = U
NORAD_CAT_ID   = 66504
ELEMENT_SET_NO = 999
REV_AT_EPOCH   = 428
BSTAR          = -.15027115E-1
MEAN_MOTION_DOT = -.816865E-2
MEAN_MOTION_DDOT = 0

CCSDS_OMM_VERS = 2.0
CREATION_DATE  = 
ORIGINATOR     = 

OBJECT_NAME    = STARLINK-34766
OBJECT_ID      = 2025-263W
CENTER_NAME    = EARTH
REF_FRAME      = TEME
TIME_SYSTEM    = UTC
MEAN_ELEMENT_THEORY = SGP/SGP4

EPOCH          = 2025-12-04T08:00:01.999872
MEAN_MOTION    = 15.67846658
ECCENTRICITY   = .00016555
INCLINATION    = 42.9991
RA_OF_ASC_NODE = 174.5484
ARG_OF_PERICENTER = 265.4467
MEAN_ANOMALY   = 105.6150

EPHEMERIS_TYPE = 0
CLASSIFICATION_TYPE = U
NORAD_CAT_ID   = 66505
ELEMENT_SET_NO = 999
REV_AT_EPOCH   = 428
BSTAR          = -.1993246E-1
MEAN_MOTION_DOT = -.1991103E-1
MEAN_MOTION_DDOT = 0

CCSDS_OMM_VERS = 2.0
CREATION_DATE  = 
ORIGINATOR     = 

OBJECT_NAME    = STARLINK-34765
OBJECT_ID      = 2025-263X
CENTER_NAME    = EARTH
REF_FRAME      = TEME
TIME_SYSTEM    = UTC
MEAN_ELEMENT_THEORY = SGP/SGP4

EPOCH          = 2025-12-04T08:00:01.999872
MEAN_MOTION    = 15.67847404
ECCENTRICITY   = .00016956
INCLINATION    = 42.9992
RA_OF_ASC_NODE = 174.5443
ARG_OF_PERICENTER = 263.5582
MEAN_ANOMALY   = 109.4195

EPHEMERIS_TYPE = 0
CLASSIFICATION_TYPE = U
NORAD_CAT_ID   = 66506
ELEMENT_SET_NO = 999
REV_AT_EPOCH   = 428
BSTAR          = -.19941085E-1
MEAN_MOTION_DOT = -.1991948E-1
MEAN_MOTION_DDOT = 0

CCSDS_OMM_VERS = 2.0
CREATION_DATE  = 
ORIGINATOR     = 

OBJECT_NAME    = STARLINK-34767
OBJECT_ID      = 2025-263Y
CENTER_NAME    = EARTH
REF_FRAME      = TEME
TIME_SYSTEM    = UTC
MEAN_ELEMENT_THEORY = SGP/SGP4

EPOCH          = 2025-12-04T08:00:01.999872
MEAN_MOTION    = 15.67844568
ECCENTRICITY   = .00017569
INCLINATION    = 42.9992
RA_OF_ASC_NODE = 174.5336
ARG_OF_PERICENTER = 267.8039
MEAN_ANOMALY   = 109.0097

EPHEMERIS_TYPE = 0
CLASSIFICATION_TYPE = U
NORAD_CAT_ID   = 66507
ELEMENT_SET_NO = 999
REV_AT_EPOCH   = 428
BSTAR          = -.1990643E-1
MEAN_MOTION_DOT = -.1988746E-1
MEAN_MOTION_DDOT = 0

CCSDS_OMM_VERS = 2.0
CREATION_DATE  = 
ORIGINATOR     = 

OBJECT_NAME    = STARLINK-35608
OBJECT_ID      = 2025-263Z
CENTER_NAME    = EARTH
REF_FRAME      = TEME
TIME_SYSTEM    = UTC
MEAN_ELEMENT_THEORY = SGP/SGP4

EPOCH          = 2025-12-04T08:00:01.999872
MEAN_MOTION    = 15.67827043
ECCENTRICITY   = .00018593
INCLINATION    = 42.9992
RA_OF_ASC_NODE = 174.5199
ARG_OF_PERICENTER = 268.1849
MEAN_ANOMALY   = 114.3920

EPHEMERIS_TYPE = 0
CLASSIFICATION_TYPE = U
NORAD_CAT_ID   = 66508
ELEMENT_SET_NO = 999
REV_AT_EPOCH   = 428
BSTAR          = -.19709138E-1
MEAN_MOTION_DOT = -.1970198E-1
MEAN_MOTION_DDOT = 0

CCSDS_OMM_VERS = 2.0
CREATION_DATE  = 
ORIGINATOR     = 

OBJECT_NAME    = STARLINK-35598
OBJECT_ID      = 2025-263AA
CENTER_NAME    = EARTH
REF_FRAME      = TEME
TIME_SYSTEM    = UTC
MEAN_ELEMENT_THEORY = SGP/SGP4

EPOCH          = 2025-12-04T08:00:01.999872
MEAN_MOTION    = 15.67845900
ECCENTRICITY   = .00017012
INCLINATION    = 42.9990
RA_OF_ASC_NODE = 174.4987
ARG_OF_PERICENTER = 266.6720
MEAN_ANOMALY   = 123.5606

EPHEMERIS_TYPE = 0
CLASSIFICATION_TYPE = U
NORAD_CAT_ID   = 66509
ELEMENT_SET_NO = 999
REV_AT_EPOCH   = 428
BSTAR          = -.19929474E-1
MEAN_MOTION_DOT = -.1990823E-1
MEAN_MOTION_DDOT = 0

CCSDS_OMM_VERS = 2.0
CREATION_DATE  = 
ORIGINATOR     = 

OBJECT_NAME    = STARLINK-35600
OBJECT_ID      = 2025-263AB
CENTER_NAME    = EARTH
REF_FRAME      = TEME
TIME_SYSTEM    = UTC
MEAN_ELEMENT_THEORY = SGP/SGP4

EPOCH          = 2025-12-04T08:00:01.999872
MEAN_MOTION    = 15.67844203
ECCENTRICITY   = .0001738
INCLINATION    = 42.9992
RA_OF_ASC_NODE = 174.5136
ARG_OF_PERICENTER = 267.9875
MEAN_ANOMALY   = 116.4949

EPHEMERIS_TYPE = 0
CLASSIFICATION_TYPE = U
NORAD_CAT_ID   = 66510
ELEMENT_SET_NO = 999
REV_AT_EPOCH   = 428
BSTAR          = -.19906374E-1
MEAN_MOTION_DOT = -.1988699E-1
MEAN_MOTION_DDOT = 0

